NORAD_CAT_ID,OBJECT_NAME,OBJECT_TYPE,EPOCH,MEAN_MOTION,ECCENTRICITY,INCLINATION,RA_OF_ASC_NODE,ARG_OF_PERICENTER,MEAN_ANOMALY,BSTAR,MEAN_MOTION_DOT,MEAN_MOTION_DDOT,TLE_LINE0,TLE_LINE1,TLE_LINE2,SEMIMAJOR_AXIS,PERIOD,APOGEE,PERIGEE,DECAYED
55416.0,STARLINK-5624,PAYLOAD,2023-07-19 09:52:54,14.98327997,0.0002931,70.002,355.7042,261.6225,98.4601,-4.5303e-05,-6.33e-06,0.0,0 STARLINK-5624,1 55416U 23014AB  23200.41173936 -.00000633  00000-0 -45303-4 0  9995,2 55416  70.0020 355.7042 0002931 261.6225  98.4601 14.98327997 26181,6950.199,96.107,574.101,570.027,0.0
55416.0,STARLINK-5624,PAYLOAD,2023-07-19 17:53:35,14.98322916,0.0003041,70.0019,354.8616,266.2842,93.7969,-9.7876e-05,-1.26e-05,0.0,0 STARLINK-5624,1 55416U 23014AB  23200.74554502 -.00001260  00000-0 -97876-4 0  9992,2 55416  70.0019 354.8616 0003041 266.2842  93.7969 14.98322916 26232,6950.215,96.107,574.193,569.966,0.0
55416.0,STARLINK-5624,PAYLOAD,2023-07-20 13:07:10,14.98335171,0.0003258,70.0015,352.8412,265.7875,94.2912,-1.5505e-06,-1.12e-06,0.0,0 STARLINK-5624,1 55416U 23014AB  23201.54665473 -.00000112  00000-0 -15505-5 0  9996,2 55416  70.0015 352.8412 0003258 265.7875  94.2912 14.98335171 26354,6950.177,96.107,574.306,569.778,0.0
55416.0,STARLINK-5624,PAYLOAD,2023-07-21 09:56:55,14.98326198,0.0003371,70.0014,350.6524,268.5303,91.547,8.1976e-05,8.85e-06,0.0,0 STARLINK-5624,1 55416U 23014AB  23202.41453656  .00000885  00000-0  81976-4 0  9990,2 55416  70.0014 350.6524 0003371 268.5303  91.5470 14.98326198 26488,6950.205,96.107,574.413,569.727,0.0
55416.0,STARLINK-5624,PAYLOAD,2023-07-24 08:26:50,14.983102,0.0003432,70.0012,343.246,271.8083,88.2683,0.00039267,4.593e-05,0.0,0 STARLINK-5624,1 55416U 23014AB  23205.35197280  .00004593  00000-0  39267-3 0  9999,2 55416  70.0012 343.2460 0003432 271.8083  88.2683 14.98310200 27862,6950.254,96.108,574.504,569.734,0.0
55416.0,STARLINK-5624,PAYLOAD,2023-07-25 11:41:07,14.98327828,0.0003239,69.9996,340.3825,257.7515,102.3281,-2.9383e-05,-4.44e-06,0.0,0 STARLINK-5624,1 55416U 23014AB  23206.48689418 -.00000444  00000-0 -29383-4 0  9995,2 55416  69.9996 340.3825 0003239 257.7515 102.3281 14.98327828 28037,6950.2,96.107,574.316,569.813,0.0
55416.0,STARLINK-5624,PAYLOAD,2023-07-26 10:07:00,14.9833259,0.0003509,70.001,338.028,267.8697,92.206,-5.0634e-05,-6.97e-06,0.0,0 STARLINK-5624,1 55416U 23014AB  23207.42153302 -.00000697  00000-0 -50634-4 0  9991,2 55416  70.0010 338.0280 0003509 267.8697  92.2060 14.98332590 28178,6950.185,96.107,574.489,569.611,0.0
55416.0,STARLINK-5624,PAYLOAD,2023-07-27 08:32:53,14.98322866,0.0003529,70.001,335.6715,266.6951,93.3804,1.1604e-05,4.5e-07,0.0,0 STARLINK-5624,1 55416U 23014AB  23208.35617648  .00000045  00000-0  11604-4 0  9991,2 55416  70.0010 335.6715 0003529 266.6951  93.3804 14.98322866 27370,6950.215,96.107,574.533,569.627,0.0
55416.0,STARLINK-5624,PAYLOAD,2023-07-27 14:57:25,14.98324429,0.0003554,70.0009,334.9982,265.8878,94.1875,2.8142e-05,2.43e-06,0.0,0 STARLINK-5624,1 55416U 23014AB  23208.62321581  .00000243  00000-0  28142-4 0  9994,2 55416  70.0009 334.9982 0003554 265.8878  94.1875 14.98324429 28356,6950.21,96.107,574.545,569.605,0.0
55416.0,STARLINK-5624,PAYLOAD,2023-07-28 06:58:46,14.98328442,0.0003577,70.0008,333.3151,266.3523,93.7227,2.2122e-05,1.71e-06,0.0,0 STARLINK-5624,1 55416U 23014AB  23209.29081434  .00000171  00000-0  22122-4 0  9990,2 55416  70.0008 333.3151 0003577 266.3523  93.7227 14.98328442 27516,6950.198,96.107,574.549,569.577,0.0
55416.0,STARLINK-5624,PAYLOAD,2023-07-28 08:34:54,14.98329422,0.0003582,70.0007,333.1466,267.3289,92.746,2.3539e-05,1.88e-06,0.0,0 STARLINK-5624,1 55416U 23014AB  23209.35757378  .00000188  00000-0  23539-4 0  9995,2 55416  70.0007 333.1466 0003582 267.3289  92.7460 14.98329422 28460,6950.195,96.107,574.549,569.57,0.0
55416.0,STARLINK-5624,PAYLOAD,2023-07-29 10:13:03,14.98321621,0.0003595,70.0004,330.4542,266.1761,93.8987,0.00025242,2.919e-05,0.0,0 STARLINK-5624,1 55416U 23014AB  23210.42573173  .00002919  00000-0  25242-3 0  9990,2 55416  70.0004 330.4542 0003595 266.1761  93.8987 14.98321621 27680,6950.219,96.108,574.582,569.585,0.0
55416.0,STARLINK-5624,PAYLOAD,2023-07-29 18:13:42,14.98339236,0.0003639,70.0005,329.6125,267.1341,92.9401,0.00011504,1.28e-05,0.0,0 STARLINK-5624,1 55416U 23014AB  23210.75952302  .00001280  00000-0  11504-3 0  9997,2 55416  70.0005 329.6125 0003639 267.1341  92.9401 14.98339236 27730,6950.164,96.106,574.558,569.5,0.0
55416.0,STARLINK-5624,PAYLOAD,2023-07-30 10:15:04,14.98323773,0.000354,70.0009,327.9289,267.8754,92.1999,2.4333e-05,1.97e-06,0.0,0 STARLINK-5624,1 55416U 23014AB  23211.42713461  .00000197  00000-0  24333-4 0  9994,2 55416  70.0009 327.9289 0003540 267.8754  92.1999 14.98323773 27836,6950.212,96.107,574.538,569.617,0.0
55416.0,STARLINK-5624,PAYLOAD,2023-07-30 18:15:44,14.98335112,0.0003658,70.0008,327.0876,270.8676,89.2064,5.3304e-05,5.43e-06,0.0,0 STARLINK-5624,1 55416U 23014AB  23211.76092649  .00000543  00000-0  53304-4 0  9994,2 55416  70.0008 327.0876 0003658 270.8676  89.2064 14.98335112 27880,6950.177,96.107,574.584,569.5,0.0
55416.0,STARLINK-5624,PAYLOAD,2023-07-31 10:17:05,14.98331447,0.0003632,70.0009,325.404,270.0178,90.0565,-8.7953e-05,-1.142e-05,0.0,0 STARLINK-5624,1 55416U 23014AB  23212.42853158 -.00001142  00000-0 -87953-4 0  9993,2 55416  70.0009 325.4040 0003632 270.0178  90.0565 14.98331447 27981,6950.188,96.107,574.578,569.529,0.0
55416.0,STARLINK-5624,PAYLOAD,2023-07-31 18:17:44,14.98338265,0.0003626,70.0008,324.5626,268.8552,91.2192,-1.8964e-06,-1.16e-06,0.0,0 STARLINK-5624,1 55416U 23014AB  23212.76232394 -.00000116  00000-0 -18964-5 0  9990,2 55416  70.0008 324.5626 0003626 268.8552  91.2192 14.98338265 28035,6950.167,96.106,574.552,569.512,0.0
55416.0,STARLINK-5624,PAYLOAD,2023-08-01 10:19:06,14.98327301,0.0003672,70.0006,322.8801,269.7403,90.3335,-3.3571e-05,-4.94e-06,0.0,0 STARLINK-5624,1 55416U 23014AB  23213.42993191 -.00000494  00000-0 -33571-4 0  9992,2 55416  70.0006 322.8801 0003672 269.7403  90.3335 14.98327301 28134,6950.201,96.107,574.618,569.514,0.0
55416.0,STARLINK-5624,PAYLOAD,2023-08-02 10:21:06,14.98327898,0.0003426,70.0011,320.3544,266.6081,93.4687,2.0305e-05,1.49e-06,0.0,0 STARLINK-5624,1 55416U 23014AB  23214.43133057  .00000149  00000-0  20305-4 0  9997,2 55416  70.0011 320.3544 0003426 266.6081  93.4687 14.98327898 28283,6950.199,96.107,574.446,569.683,0.0
55416.0,STARLINK-5624,PAYLOAD,2023-08-02 16:45:38,14.98335068,0.0003565,70.0008,319.681,266.7112,93.3639,8.5591e-05,9.28e-06,0.0,0 STARLINK-5624,1 55416U 23014AB  23214.69836411  .00000928  00000-0  85591-4 0  9992,2 55416  70.0008 319.6810 0003565 266.7112  93.3639 14.98335068 28325,6950.177,96.107,574.52,569.564,0.0
55416.0,STARLINK-5624,PAYLOAD,2023-08-03 16:47:38,14.98362135,0.0003566,70.0014,317.1571,264.7914,95.2838,-0.00041755,-5.076e-05,0.0,0 STARLINK-5624,1 55416U 23014AB  23215.69975652 -.00005076  00000-0 -41755-3 0  9998,2 55416  70.0014 317.1571 0003566 264.7914  95.2838 14.98362135 28471,6950.094,96.105,574.437,569.48,0.0
55416.0,STARLINK-5624,PAYLOAD,2023-08-04 10:25:09,14.98325265,0.0003393,70.0017,315.306,265.4219,94.6553,-3.1327e-05,-4.67e-06,0.0,0 STARLINK-5624,1 55416U 23014AB  23216.43413227 -.00000467  00000-0 -31327-4 0  9990,2 55416  70.0017 315.3060 0003393 265.4219  94.6553 14.98325265 28583,6950.208,96.107,574.431,569.714,0.0
55416.0,STARLINK-5624,PAYLOAD,2023-08-05 10:27:08,14.9833735,0.0003245,70.0018,312.7817,265.207,94.8719,7.8718e-05,8.47e-06,0.0,0 STARLINK-5624,1 55416U 23014AB  23217.43552019  .00000847  00000-0  78718-4 0  9999,2 55416  70.0018 312.7817 0003245 265.2070  94.8719 14.98337350 28735,6950.17,96.107,574.29,569.78,0.0
55416.0,STARLINK-5624,PAYLOAD,2023-08-05 16:51:40,14.98343094,0.0003154,70.002,312.1084,264.5776,95.5024,0.00013925,1.569e-05,0.0,0 STARLINK-5624,1 55416U 23014AB  23217.70255339  .00001569  00000-0  13925-3 0  9994,2 55416  70.0020 312.1084 0003154 264.5776  95.5024 14.98343094 28775,6950.152,96.106,574.209,569.825,0.0
55416.0,STARLINK-5624,PAYLOAD,2023-08-05 23:16:14,14.98325645,0.0003091,70.0025,311.4358,268.5474,91.5331,-5.4717e-05,-7.46e-06,0.0,0 STARLINK-5624,1 55416U 23014AB  23217.96960907 -.00000746  00000-0 -54717-4 0  9999,2 55416  70.0025 311.4358 0003091 268.5474  91.5331 14.98325645 28819,6950.206,96.107,574.22,569.923,0.0
55416.0,STARLINK-5624,PAYLOAD,2023-08-06 10:29:11,14.98311233,0.0003085,70.0022,310.2579,269.1185,90.9621,-0.00011272,-1.437e-05,0.0,0 STARLINK-5624,1 55416U 23014AB  23218.43694268 -.00001437  00000-0 -11272-3 0  9992,2 55416  70.0022 310.2579 0003085 269.1185  90.9621 14.98311233 28887,6950.251,96.108,574.26,569.972,0.0
55416.0,STARLINK-5624,PAYLOAD,2023-08-07 08:55:04,14.9832942,0.0003394,70.0013,307.901,271.484,88.593,-8.2389e-05,-1.076e-05,0.0,0 STARLINK-5624,1 55416U 23014AB  23219.37157755 -.00001076  00000-0 -82389-4 0  9998,2 55416  70.0013 307.9010 0003394 271.4840  88.5930 14.98329420 29027,6950.195,96.107,574.419,569.701,0.0
55416.0,STARLINK-5624,PAYLOAD,2023-08-08 15:21:36,14.9833483,0.0003734,70.0004,304.7013,275.0637,85.0096,0.00032326,3.767e-05,0.0,0 STARLINK-5624,1 55416U 23014AB  23220.64000380  .00003767  00000-0  32326-3 0  9993,2 55416  70.0004 304.7013 0003734 275.0637  85.0096 14.98334830 29214,6950.178,96.107,574.638,569.448,0.0
55416.0,STARLINK-5624,PAYLOAD,2023-08-08 23:22:15,14.98394944,0.00039,70.0011,303.8625,270.6243,89.4469,-0.00093916,-0.00011301,0.0,0 STARLINK-5624,1 55416U 23014AB  23220.97379113 -.00011301  00000-0 -93916-3 0  9999,2 55416  70.0011 303.8625 0003900 270.6243  89.4469 14.98394944 29269,6949.992,96.103,574.568,569.147,0.0
55416.0,STARLINK-5624,PAYLOAD,2023-08-09 08:59:06,14.98326128,0.0003666,70.0008,302.8511,274.8196,85.2544,4.4594e-05,4.39e-06,0.0,0 STARLINK-5624,1 55416U 23014AB  23221.37437705  .00000439  00000-0  44594-4 0  9993,2 55416  70.0008 302.8511 0003666 274.8196  85.2544 14.98326128 29324,6950.205,96.107,574.618,569.522,0.0
